GEOSCAN-3 (RS92S3)
1 64893U 25155T   26194.57990896  .00010884  00000-0  30971-3 0  9997
2 64893  97.4545 164.7832 0008636  91.5073 268.7160 15.36272225 84901
INNOSAT3 (RS92S0)
1 64894U 25155U   26194.61159664  .00024087  00000-0  49868-3 0  9998
2 64894  97.4490 166.7794 0008352  94.4825 265.7379 15.45735274 85045
KNACKSAT-2
1 67683U 98067XZ  26194.27582286  .00036553  00000-0  40980-3 0  9998
2 67683  51.6258 163.0209 0008057 321.9354  38.1070 15.62269029 24352
