OBJECT_NAME,OBJECT_ID,EPOCH,MEAN_MOTION,ECCENTRICITY,INCLINATION,RA_OF_ASC_NODE,ARG_OF_PERICENTER,MEAN_ANOMALY,EPHEMERIS_TYPE,CLASSIFICATION_TYPE,NORAD_CAT_ID,ELEMENT_SET_NO,REV_AT_EPOCH,BSTAR,MEAN_MOTION_DOT,MEAN_MOTION_DDOT
GEOSCAN 3 (RS92S3),2025-155T,2026-07-13T13:55:04.134144,15.36272225,.00086357,97.4545,164.7832,91.5073,268.7160,0,U,64893,999,8490,.30971492E-3,.10884E-3,0
INNOSAT 3 (RS92S0),2025-155U,2026-07-13T14:40:41.949696,15.45735274,.00083521,97.4490,166.7794,94.4825,265.7379,0,U,64894,999,8504,.49867975E-3,.24087E-3,0
KNACKSAT-2,1998-067XZ,2026-07-13T06:37:11.095104,15.62269029,.0008057,51.6258,163.0209,321.9354,38.1070,0,U,67683,999,2435,.4098E-3,.36553E-3,0
